STARLINK-36308          
1 68543U 26070B   26099.83335647 -.00901532  27261-3 -18092-2 0  9991
2 68543  53.1587 228.8490 0000735  55.7087 235.4353 15.99033357  2335
