{
  "norad_id": 68543,
  "name": "STARLINK-36308",
  "history": [
    {
      "epoch": "2026-04-09T20:00:01.999008Z",
      "apogee_km": 277.58864692307,
      "perigee_km": 276.61032715947476,
      "latitude_deg": -48.46710827759072,
      "longitude_deg": 33.51107859915935,
      "height_km": 293.98747358833305,
      "semi_major_axis_km": 6655.236487041272,
      "eccentricity": 7.35e-05,
      "inclination_deg": 53.1587,
      "raan_deg": 228.849,
      "arg_perigee_deg": 55.7087,
      "mean_anomaly_deg": 235.4353,
      "mean_motion_rev_day": 15.99033357
    }
  ]
}